CTC2_L_00003001-01
1 18620U 24757BU  26037.47790509  .00000000  00000+0  00000-0 0  9990
2 18620  90.0000   0.0000 0000000   0.0000   0.0000 15.90815258    13
CTC2_L_00003001-02
1 18621U 25077ZI  26037.47790509  .00000000  00000+0  00000-0 0  9997
2 18621  90.0000   0.0000 0000000   0.0000  90.0000 15.90815258    13
CTC2_L_00003001-03
1 18622U 25218TE  26037.47790509  .00000000  00000+0  00000-0 0  9995
2 18622  90.0000   0.0000 0000000   0.0000 180.0000 15.90815258    14
CTC2_L_00003001-04
1 18623U 26916TJ  26037.47790509  .00000000  00000+0  00000-0 0  9992
2 18623  90.0000   0.0000 0000000   0.0000 270.0000 15.90815258    15
CTC2_L_00003002-01
1 18624U 24055JU  26037.47790509  .00000000  00000+0  00000-0 0  9995
2 18624  90.0000  12.0000 0000000   0.0000  12.0000 15.90815258    13
CTC2_L_00003002-02
1 18625U 24503JU  26037.47790509  .00000000  00000+0  00000-0 0  9994
2 18625  90.0000  12.0000 0000000   0.0000 102.0000 15.90815258    14
CTC2_L_00003002-03
1 18626U 23422FV  26037.47790509  .00000000  00000+0  00000-0 0  9994
2 18626  90.0000  12.0000 0000000   0.0000 192.0000 15.90815258    14
CTC2_L_00003002-04
1 18627U 25900KY  26037.47790509  .00000000  00000+0  00000-0 0  9998
2 18627  90.0000  12.0000 0000000   0.0000 282.0000 15.90815258    15
CTC2_L_00003003-01
1 18628U 26939EZ  26037.47790509  .00000000  00000+0  00000-0 0  9992
2 18628  90.0000  24.0000 0000000   0.0000  24.0000 15.90815258    13
CTC2_L_00003003-02
1 18629U 25180YJ  26037.47790509  .00000000  00000+0  00000-0 0  9990
2 18629  90.0000  24.0000 0000000   0.0000 114.0000 15.90815258    14
CTC2_L_00003003-03
1 18630U 23488JV  26037.47790509  .00000000  00000+0  00000-0 0  9991
2 18630  90.0000  24.0000 0000000   0.0000 204.0000 15.90815258    16
CTC2_L_00003003-04
1 18631U 22004QX  26037.47790509  .00000000  00000+0  00000-0 0  9995
2 18631  90.0000  24.0000 0000000   0.0000 294.0000 15.90815258    16
CTC2_L_00003004-01
1 18632U 22502OA  26037.47790509  .00000000  00000+0  00000-0 0  9999
2 18632  90.0000  36.0000 0000000   0.0000  36.0000 15.90815258    14
CTC2_L_00003004-02
1 18633U 22163WF  26037.47790509  .00000000  00000+0  00000-0 0  9993
2 18633  90.0000  36.0000 0000000   0.0000 126.0000 15.90815258    15
CTC2_L_00003004-03
1 18634U 26349YX  26037.47790509  .00000000  00000+0  00000-0 0  9994
2 18634  90.0000  36.0000 0000000   0.0000 216.0000 15.90815258    16
CTC2_L_00003004-04
1 18635U 25303JG  26037.47790509  .00000000  00000+0  00000-0 0  9994
2 18635  90.0000  36.0000 0000000   0.0000 306.0000 15.90815258    17
CTC2_L_00003005-01
1 18636U 22811OD  26037.47790509  .00000000  00000+0  00000-0 0  9996
2 18636  90.0000  48.0000 0000000   0.0000  48.0000 15.90815258    14
CTC2_L_00003005-02
1 18637U 23323CM  26037.47790509  .00000000  00000+0  00000-0 0  9996
2 18637  90.0000  48.0000 0000000   0.0000 138.0000 15.90815258    15
CTC2_L_00003005-03
1 18638U 24648XA  26037.47790509  .00000000  00000+0  00000-0 0  9998
2 18638  90.0000  48.0000 0000000   0.0000 228.0000 15.90815258    16
CTC2_L_00003005-04
1 18639U 26821TK  26037.47790509  .00000000  00000+0  00000-0 0  9994
2 18639  90.0000  48.0000 0000000   0.0000 318.0000 15.90815258    17
CTC2_L_00003006-01
1 18640U 22763W   26037.47790509  .00000000  00000+0  00000-0 0  9997
2 18640  90.0000  60.0000 0000000   0.0000  60.0000 15.90815258    17
CTC2_L_00003006-02
1 18641U 25984F   26037.47790509  .00000000  00000+0  00000-0 0  9996
2 18641  90.0000  60.0000 0000000   0.0000 150.0000 15.90815258    18
CTC2_L_00003006-03
1 18642U 23311WJ  26037.47790509  .00000000  00000+0  00000-0 0  9999
2 18642  90.0000  60.0000 0000000   0.0000 240.0000 15.90815258    19
CTC2_L_00003006-04
1 18643U 24273VL  26037.47790509  .00000000  00000+0  00000-0 0  9998
2 18643  90.0000  60.0000 0000000   0.0000 330.0000 15.90815258    10
CTC2_L_00003007-01
1 18644U 26198TO  26037.47790509  .00000000  00000+0  00000-0 0  9997
2 18644  90.0000  72.0000 0000000   0.0000  72.0000 15.90815258    17
CTC2_L_00003007-02
1 18645U 25468LJ  26037.47790509  .00000000  00000+0  00000-0 0  9997
2 18645  90.0000  72.0000 0000000   0.0000 162.0000 15.90815258    18
CTC2_L_00003007-03
1 18646U 24763UD  26037.47790509  .00000000  00000+0  00000-0 0  9995
2 18646  90.0000  72.0000 0000000   0.0000 252.0000 15.90815258    19
CTC2_L_00003007-04
1 18647U 26300LE  26037.47790509  .00000000  00000+0  00000-0 0  9995
2 18647  90.0000  72.0000 0000000   0.0000 342.0000 15.90815258    10
CTC2_L_00003008-01
1 18648U 26396VG  26037.47790509  .00000000  00000+0  00000-0 0  9991
2 18648  90.0000  84.0000 0000000   0.0000  84.0000 15.90815258    17
CTC2_L_00003008-02
1 18649U 22300OP  26037.47790509  .00000000  00000+0  00000-0 0  9993
2 18649  90.0000  84.0000 0000000   0.0000 174.0000 15.90815258    18
CTC2_L_00003008-03
1 18650U 25918CL  26037.47790509  .00000000  00000+0  00000-0 0  9993
2 18650  90.0000  84.0000 0000000   0.0000 264.0000 15.90815258    10
CTC2_L_00003008-04
1 18651U 24923AN  26037.47790509  .00000000  00000+0  00000-0 0  9999
2 18651  90.0000  84.0000 0000000   0.0000 354.0000 15.90815258    11
CTC2_L_00003009-01
1 18652U 23114VF  26037.47790509  .00000000  00000+0  00000-0 0  9991
2 18652  90.0000  96.0000 0000000   0.0000  96.0000 15.90815258    18
CTC2_L_00003009-02
1 18653U 24221Q   26037.47790509  .00000000  00000+0  00000-0 0  9992
2 18653  90.0000  96.0000 0000000   0.0000 186.0000 15.90815258    19
CTC2_L_00003009-03
1 18654U 24637KJ  26037.47790509  .00000000  00000+0  00000-0 0  9994
2 18654  90.0000  96.0000 0000000   0.0000 276.0000 15.90815258    10
CTC2_L_00003009-04
1 18655U 24453NW  26037.47790509  .00000000  00000+0  00000-0 0  9991
2 18655  90.0000  96.0000 0000000   0.0000   6.0000 15.90815258    12
CTC2_L_00003010-01
1 18656U 26927JR  26037.47790509  .00000000  00000+0  00000-0 0  9990
2 18656  90.0000 108.0000 0000000   0.0000 108.0000 15.90815258    10
CTC2_L_00003010-02
1 18657U 26942FW  26037.47790509  .00000000  00000+0  00000-0 0  9998
2 18657  90.0000 108.0000 0000000   0.0000 198.0000 15.90815258    10
CTC2_L_00003010-03
1 18658U 26898DA  26037.47790509  .00000000  00000+0  00000-0 0  9999
2 18658  90.0000 108.0000 0000000   0.0000 288.0000 15.90815258    11
CTC2_L_00003010-04
1 18659U 23808HB  26037.47790509  .00000000  00000+0  00000-0 0  9998
2 18659  90.0000 108.0000 0000000   0.0000  18.0000 15.90815258    13
CTC2_L_00003011-01
1 18660U 22067A   26037.47790509  .00000000  00000+0  00000-0 0  9996
2 18660  90.0000 120.0000 0000000   0.0000 120.0000 15.90815258    13
CTC2_L_00003011-02
1 18661U 26943FX  26037.47790509  .00000000  00000+0  00000-0 0  9994
2 18661  90.0000 120.0000 0000000   0.0000 210.0000 15.90815258    14
CTC2_L_00003011-03
1 18662U 25856UI  26037.47790509  .00000000  00000+0  00000-0 0  9997
2 18662  90.0000 120.0000 0000000   0.0000 300.0000 15.90815258    15
CTC2_L_00003011-04
1 18663U 22683UI  26037.47790509  .00000000  00000+0  00000-0 0  9993
2 18663  90.0000 120.0000 0000000   0.0000  30.0000 15.90815258    16
CTC2_L_00003012-01
1 18664U 24738UQ  26037.47790509  .00000000  00000+0  00000-0 0  9997
2 18664  90.0000 132.0000 0000000   0.0000 132.0000 15.90815258    13
CTC2_L_00003012-02
1 18665U 22119EU  26037.47790509  .00000000  00000+0  00000-0 0  9999
2 18665  90.0000 132.0000 0000000   0.0000 222.0000 15.90815258    14
CTC2_L_00003012-03
1 18666U 22738WS  26037.47790509  .00000000  00000+0  00000-0 0  9997
2 18666  90.0000 132.0000 0000000   0.0000 312.0000 15.90815258    15
CTC2_L_00003012-04
1 18667U 25296WV  26037.47790509  .00000000  00000+0  00000-0 0  9990
2 18667  90.0000 132.0000 0000000   0.0000  42.0000 15.90815258    16
CTC2_L_00003013-01
1 18668U 23997SE  26037.47790509  .00000000  00000+0  00000-0 0  9997
2 18668  90.0000 144.0000 0000000   0.0000 144.0000 15.90815258    13
CTC2_L_00003013-02
1 18669U 22144ZH  26037.47790509  .00000000  00000+0  00000-0 0  9991
2 18669  90.0000 144.0000 0000000   0.0000 234.0000 15.90815258    14
CTC2_L_00003013-03
1 18670U 23441XN  26037.47790509  .00000000  00000+0  00000-0 0  9994
2 18670  90.0000 144.0000 0000000   0.0000 324.0000 15.90815258    16
CTC2_L_00003013-04
1 18671U 22689XC  26037.47790509  .00000000  00000+0  00000-0 0  9998
2 18671  90.0000 144.0000 0000000   0.0000  54.0000 15.90815258    17
CTC2_L_00003014-01
1 18672U 25620TQ  26037.47790509  .00000000  00000+0  00000-0 0  9997
2 18672  90.0000 156.0000 0000000   0.0000 156.0000 15.90815258    14
CTC2_L_00003014-02
1 18673U 25455AJ  26037.47790509  .00000000  00000+0  00000-0 0  9994
2 18673  90.0000 156.0000 0000000   0.0000 246.0000 15.90815258    15
CTC2_L_00003014-03
1 18674U 26527B   26037.47790509  .00000000  00000+0  00000-0 0  9996
2 18674  90.0000 156.0000 0000000   0.0000 336.0000 15.90815258    16
CTC2_L_00003014-04
1 18675U 26042FI  26037.47790509  .00000000  00000+0  00000-0 0  9999
2 18675  90.0000 156.0000 0000000   0.0000  66.0000 15.90815258    17
CTC2_L_00003015-01
1 18676U 24337ZK  26037.47790509  .00000000  00000+0  00000-0 0  9995
2 18676  90.0000 168.0000 0000000   0.0000 168.0000 15.90815258    14
CTC2_L_00003015-02
1 18677U 23753BU  26037.47790509  .00000000  00000+0  00000-0 0  9997
2 18677  90.0000 168.0000 0000000   0.0000 258.0000 15.90815258    15
CTC2_L_00003015-03
1 18678U 25580SB  26037.47790509  .00000000  00000+0  00000-0 0  9998
2 18678  90.0000 168.0000 0000000   0.0000 348.0000 15.90815258    16
CTC2_L_00003015-04
1 18679U 26752FP  26037.47790509  .00000000  00000+0  00000-0 0  9991
2 18679  90.0000 168.0000 0000000   0.0000  78.0000 15.90815258    17
CTC2_L_00003016-01
1 18680U 24672CI  26037.47790509  .00000000  00000+0  00000-0 0  9992
2 18680  90.0000 180.0000 0000000   0.0000 180.0000 15.90815258    17
CTC2_L_00003016-02
1 18681U 23464YP  26037.47790509  .00000000  00000+0  00000-0 0  9991
2 18681  90.0000 180.0000 0000000   0.0000 270.0000 15.90815258    18
